ONEWEB-0045             
1 45151U 20008W   24195.40223338 -.00000416  00000+0 -12104-2 0  9994
2 45151  87.8977 161.1136 0002102  80.1691 279.9674 13.11417184218942
ONEWEB-0047             
1 45152U 20008X   24194.90388503 -.00000593  00000+0 -17344-2 0  9992
2 45152  87.8946 176.3292 0002072  86.7750 273.3614 13.10372168215966
ONEWEB-0048             
1 45153U 20008Y   24194.89891336 -.00000667  00000+0 -19480-2 0  9999
2 45153  87.8946 176.3465 0002084  87.7112 272.4253 13.10372308215577
ONEWEB-0049             
1 45154U 20008Z   24194.90057838 -.00000678  00000+0 -19780-2 0  9998
2 45154  87.8952 176.3267 0002205 101.2951 258.8425 13.10372692215792
ONEWEB-0051             
1 45155U 20008AA  24195.40053545 -.00000434  00000+0 -12611-2 0  9992
2 45155  87.8978 161.1557 0001859  82.6989 277.4351 13.11417231219623
ONEWEB-0052             
1 45156U 20008AB  24194.89725306 -.00000586  00000+0 -17157-2 0  9994
2 45156  87.8943 176.2971 0002312  98.8591 261.2799 13.10372557215708
ONEWEB-0053             
1 45157U 20008AC  24194.95537288  .00000237  00000+0  64207-3 0  9992
2 45157  87.8943 176.3385 0002389  82.7549 277.3849 13.10369397215687
ONEWEB-0054             
1 45158U 20008AD  24194.91385376 -.00000292  00000+0 -87160-3 0  9994
2 45158  87.8947 176.3278 0001974  86.4774 273.6579 13.10377292215797
